[{"OBJECT_NAME":"STARLINK-5307","OBJECT_ID":"2023-021AG","EPOCH":"2026-03-09T18:03:19.809504","MEAN_MOTION":14.98334081,"ECCENTRICITY":0.0003547,"INCLINATION":70.0011,"RA_OF_ASC_NODE":184.1828,"ARG_OF_PERICENTER":269.3273,"MEAN_ANOMALY":90.7479,"EPHEMERIS_TYPE":0,"CLASSIFICATION_TYPE":"U","NORAD_CAT_ID":55658,"ELEMENT_SET_NO":999,"REV_AT_EPOCH":16880,"BSTAR":-1.0969531e-5,"MEAN_MOTION_DOT":-2.24e-6,"MEAN_MOTION_DDOT":0},{"OBJECT_NAME":"ION SCV-021","OBJECT_ID":"2025-276DT","EPOCH":"2026-03-09T17:54:19.585728","MEAN_MOTION":14.97286526,"ECCENTRICITY":0.00131375,"INCLINATION":97.5322,"RA_OF_ASC_NODE":142.8125,"ARG_OF_PERICENTER":96.8695,"MEAN_ANOMALY":263.4023,"EPHEMERIS_TYPE":0,"CLASSIFICATION_TYPE":"U","NORAD_CAT_ID":67483,"ELEMENT_SET_NO":999,"REV_AT_EPOCH":772,"BSTAR":0.00021144867,"MEAN_MOTION_DOT":2.399e-5,"MEAN_MOTION_DDOT":0}]
